[{"OBJECT_NAME":"FENGYUN 1C DEB","OBJECT_ID":"1999-025DCN","EPOCH":"2023-09-11T08:15:10.652256","MEAN_MOTION":14.05120929,"ECCENTRICITY":0.0057581,"INCLINATION":98.7181,"RA_OF_ASC_NODE":273.9498,"ARG_OF_PERICENTER":234.7922,"MEAN_ANOMALY":138.0648,"EPHEMERIS_TYPE":0,"CLASSIFICATION_TYPE":"U","NORAD_CAT_ID":33605,"ELEMENT_SET_NO":999,"REV_AT_EPOCH":48244,"BSTAR":0.00071703,"MEAN_MOTION_DOT":1.132e-5,"MEAN_MOTION_DDOT":0},{"OBJECT_NAME":"FENGYUN 1C DEB","OBJECT_ID":"1999-025DCV","EPOCH":"2023-09-14T11:30:38.122560","MEAN_MOTION":13.97544273,"ECCENTRICITY":0.0118699,"INCLINATION":98.5669,"RA_OF_ASC_NODE":265.266,"ARG_OF_PERICENTER":248.5752,"MEAN_ANOMALY":110.2717,"EPHEMERIS_TYPE":0,"CLASSIFICATION_TYPE":"U","NORAD_CAT_ID":33612,"ELEMENT_SET_NO":999,"REV_AT_EPOCH":45189,"BSTAR":0.0014989,"MEAN_MOTION_DOT":2.2e-5,"MEAN_MOTION_DDOT":0},{"OBJECT_NAME":"FENGYUN 1C DEB","OBJECT_ID":"1999-025DCW","EPOCH":"2023-09-12T21:39:01.858176","MEAN_MOTION":14.20666514,"ECCENTRICITY":0.0034074,"INCLINATION":98.7661,"RA_OF_ASC_NODE":318.8266,"ARG_OF_PERICENTER":320.3693,"MEAN_ANOMALY":39.4994,"EPHEMERIS_TYPE":0,"CLASSIFICATION_TYPE":"U","NORAD_CAT_ID":33613,"ELEMENT_SET_NO":999,"REV_AT_EPOCH":52790,"BSTAR":0.0022103,"MEAN_MOTION_DOT":4.747e-5,"MEAN_MOTION_DDOT":0},{"OBJECT_NAME":"FENGYUN 1C DEB","OBJECT_ID":"1999-025DDB","EPOCH":"2023-09-15T08:56:53.638656","MEAN_MOTION":14.49500256,"ECCENTRICITY":0.0198979,"INCLINATION":98.612,"RA_OF_ASC_NODE":313.2951,"ARG_OF_PERICENTER":133.6693,"MEAN_ANOMALY":228.1187,"EPHEMERIS_TYPE":0,"CLASSIFICATION_TYPE":"U","NORAD_CAT_ID":33618,"ELEMENT_SET_NO":999,"REV_AT_EPOCH":84863,"BSTAR":0.0012519,"MEAN_MOTION_DOT":6.132e-5,"MEAN_MOTION_DDOT":0},{"OBJECT_NAME":"FENGYUN 1C DEB","OBJECT_ID":"1999-025DDC","EPOCH":"2023-09-15T03:23:08.644992","MEAN_MOTION":14.10016341,"ECCENTRICITY":0.0059343,"INCLINATION":98.9175,"RA_OF_ASC_NODE":321.3835,"ARG_OF_PERICENTER":208.4176,"MEAN_ANOMALY":151.3754,"EPHEMERIS_TYPE":0,"CLASSIFICATION_TYPE":"U","NORAD_CAT_ID":33619,"ELEMENT_SET_NO":999,"REV_AT_EPOCH":52043,"BSTAR":0.0017569,"MEAN_MOTION_DOT":3.108e-5,"MEAN_MOTION_DDOT":0},{"OBJECT_NAME":"FENGYUN 1C DEB","OBJECT_ID":"1999-025DDE","EPOCH":"2023-09-13T23:20:45.341664","MEAN_MOTION":14.14504193,"ECCENTRICITY":0.0301167,"INCLINATION":98.2333,"RA_OF_ASC_NODE":159.4966,"ARG_OF_PERICENTER":166.0068,"MEAN_ANOMALY":194.9689,"EPHEMERIS_TYPE":0,"CLASSIFICATION_TYPE":"U","NORAD_CAT_ID":33621,"ELEMENT_SET_NO":999,"REV_AT_EPOCH":81303,"BSTAR":0.00053057,"MEAN_MOTION_DOT":1.533e-5,"MEAN_MOTION_DDOT":0},{"OBJECT_NAME":"FENGYUN 1C DEB","OBJECT_ID":"1999-025DDG","EPOCH":"2023-09-12T15:55:55.567776","MEAN_MOTION":14.13599366,"ECCENTRICITY":0.0081593,"INCLINATION":98.1877,"RA_OF_ASC_NODE":54.4856,"ARG_OF_PERICENTER":186.8501,"MEAN_ANOMALY":173.1565,"EPHEMERIS_TYPE":0,"CLASSIFICATION_TYPE":"U","NORAD_CAT_ID":33623,"ELEMENT_SET_NO":999,"REV_AT_EPOCH":49612,"BSTAR":0.0047937,"MEAN_MOTION_DOT":9.302e-5,"MEAN_MOTION_DDOT":0},{"OBJECT_NAME":"FENGYUN 1C DEB","OBJECT_ID":"1999-025DDH","EPOCH":"2023-09-14T06:00:20.392128","MEAN_MOTION":14.87329924,"ECCENTRICITY":0.0214978,"INCLINATION":98.0695,"RA_OF_ASC_NODE":262.3935,"ARG_OF_PERICENTER":279.6671,"MEAN_ANOMALY":78.0321,"EPHEMERIS_TYPE":0,"CLASSIFICATION_TYPE":"U","NORAD_CAT_ID":33624,"ELEMENT_SET_NO":999,"REV_AT_EPOCH":81012,"BSTAR":0.0043804,"MEAN_MOTION_DOT":0.00061012,"MEAN_MOTION_DDOT":0},{"OBJECT_NAME":"FENGYUN 1C DEB","OBJECT_ID":"1999-025DDJ","EPOCH":"2023-09-14T23:59:12.480000","MEAN_MOTION":14.43572532,"ECCENTRICITY":0.0281494,"INCLINATION":98.6404,"RA_OF_ASC_NODE":335.339,"ARG_OF_PERICENTER":112.5511,"MEAN_ANOMALY":250.5727,"EPHEMERIS_TYPE":0,"CLASSIFICATION_TYPE":"U","NORAD_CAT_ID":33625,"ELEMENT_SET_NO":999,"REV_AT_EPOCH":49495,"BSTAR":0.0012235,"MEAN_MOTION_DOT":6.676e-5,"MEAN_MOTION_DDOT":0},{"OBJECT_NAME":"FENGYUN 1C DEB","OBJECT_ID":"1999-025DDM","EPOCH":"2023-09-14T19:09:18.464832","MEAN_MOTION":15.14319218,"ECCENTRICITY":0.0083713,"INCLINATION":98.3601,"RA_OF_ASC_NODE":104.1758,"ARG_OF_PERICENTER":247.6971,"MEAN_ANOMALY":111.5368,"EPHEMERIS_TYPE":0,"CLASSIFICATION_TYPE":"U","NORAD_CAT_ID":33628,"ELEMENT_SET_NO":999,"REV_AT_EPOCH":83730,"BSTAR":0.0025571,"MEAN_MOTION_DOT":0.00051346,"MEAN_MOTION_DDOT":0},{"OBJECT_NAME":"FENGYUN 1C DEB","OBJECT_ID":"1999-025DDP","EPOCH":"2023-09-13T03:05:18.700224","MEAN_MOTION":14.14721458,"ECCENTRICITY":0.0139213,"INCLINATION":98.5515,"RA_OF_ASC_NODE":20.1149,"ARG_OF_PERICENTER":269.5804,"MEAN_ANOMALY":88.9417,"EPHEMERIS_TYPE":0,"CLASSIFICATION_TYPE":"U","NORAD_CAT_ID":33630,"ELEMENT_SET_NO":999,"REV_AT_EPOCH":52781,"BSTAR":0.00064918,"MEAN_MOTION_DOT":1.329e-5,"MEAN_MOTION_DDOT":0},{"OBJECT_NAME":"FENGYUN 1C DEB","OBJECT_ID":"1999-025DDR","EPOCH":"2023-09-14T15:10:29.346240","MEAN_MOTION":14.7007835,"ECCENTRICITY":0.0035899,"INCLINATION":99.043,"RA_OF_ASC_NODE":323.8411,"ARG_OF_PERICENTER":59.545,"MEAN_ANOMALY":300.9291,"EPHEMERIS_TYPE":0,"CLASSIFICATION_TYPE":"U","NORAD_CAT_ID":33632,"ELEMENT_SET_NO":999,"REV_AT_EPOCH":81147,"BSTAR":0.004822,"MEAN_MOTION_DOT":0.00029316,"MEAN_MOTION_DDOT":0},{"OBJECT_NAME":"FENGYUN 1C DEB","OBJECT_ID":"1999-025DDS","EPOCH":"2023-09-12T15:52:48.769248","MEAN_MOTION":14.08275186,"ECCENTRICITY":0.0093676,"INCLINATION":99.0845,"RA_OF_ASC_NODE":327.3945,"ARG_OF_PERICENTER":308.6595,"MEAN_ANOMALY":207.8515,"EPHEMERIS_TYPE":0,"CLASSIFICATION_TYPE":"U","NORAD_CAT_ID":33633,"ELEMENT_SET_NO":999,"REV_AT_EPOCH":79095,"BSTAR":0.0018998,"MEAN_MOTION_DOT":3.335e-5,"MEAN_MOTION_DDOT":0},{"OBJECT_NAME":"FENGYUN 1C DEB","OBJECT_ID":"1999-025DDV","EPOCH":"2023-09-04T21:07:06.079008","MEAN_MOTION":14.25677171,"ECCENTRICITY":0.0072175,"INCLINATION":98.5326,"RA_OF_ASC_NODE":274.7604,"ARG_OF_PERICENTER":15.8362,"MEAN_ANOMALY":111.3224,"EPHEMERIS_TYPE":0,"CLASSIFICATION_TYPE":"U","NORAD_CAT_ID":33636,"ELEMENT_SET_NO":999,"REV_AT_EPOCH":58222,"BSTAR":0.00067943,"MEAN_MOTION_DOT":1.613e-5,"MEAN_MOTION_DDOT":0},{"OBJECT_NAME":"FENGYUN 1C DEB","OBJECT_ID":"1999-025DDW","EPOCH":"2023-09-11T21:53:07.412640","MEAN_MOTION":14.27111637,"ECCENTRICITY":0.0095824,"INCLINATION":98.5769,"RA_OF_ASC_NODE":302.356,"ARG_OF_PERICENTER":62.4069,"MEAN_ANOMALY":298.6804,"EPHEMERIS_TYPE":0,"CLASSIFICATION_TYPE":"U","NORAD_CAT_ID":33637,"ELEMENT_SET_NO":999,"REV_AT_EPOCH":53062,"BSTAR":0.0015699,"MEAN_MOTION_DOT":3.978e-5,"MEAN_MOTION_DDOT":0},{"OBJECT_NAME":"FENGYUN 1C DEB","OBJECT_ID":"1999-025DDX","EPOCH":"2023-09-12T16:54:30.724128","MEAN_MOTION":13.6498762,"ECCENTRICITY":0.027489,"INCLINATION":98.4365,"RA_OF_ASC_NODE":236.4148,"ARG_OF_PERICENTER":299.4438,"MEAN_ANOMALY":57.9534,"EPHEMERIS_TYPE":0,"CLASSIFICATION_TYPE":"U","NORAD_CAT_ID":33638,"ELEMENT_SET_NO":999,"REV_AT_EPOCH":80354,"BSTAR":0.0019135,"MEAN_MOTION_DOT":1.964e-5,"MEAN_MOTION_DDOT":0}]
