FENGYUN 1C DEB          
1 33605U 99025DCN 23254.34387329  .00001132  00000+0  71703-3 0  9994
2 33605  98.7181 273.9498 0057581 234.7922 138.0648 14.05120929482445
FENGYUN 1C DEB          
1 33612U 99025DCV 23257.47960790  .00002200  00000+0  14989-2 0  9997
2 33612  98.5669 265.2660 0118699 248.5752 110.2717 13.97544273451895
FENGYUN 1C DEB          
1 33613U 99025DCW 23255.90210484  .00004747  00000+0  22103-2 0  9997
2 33613  98.7661 318.8266 0034074 320.3693  39.4994 14.20666514527909
FENGYUN 1C DEB          
1 33618U 99025DDB 23258.37284304  .00006132  00000+0  12519-2 0  9998
2 33618  98.6120 313.2951 0198979 133.6693 228.1187 14.49500256848631
FENGYUN 1C DEB          
1 33619U 99025DDC 23258.14107228  .00003108  00000+0  17569-2 0  9993
2 33619  98.9175 321.3835 0059343 208.4176 151.3754 14.10016341520431
FENGYUN 1C DEB          
1 33621U 99025DDE 23256.97274701  .00001533  00000+0  53057-3 0  9999
2 33621  98.2333 159.4966 0301167 166.0068 194.9689 14.14504193813033
FENGYUN 1C DEB          
1 33623U 99025DDG 23255.66383759  .00009302  00000+0  47937-2 0  9991
2 33623  98.1877  54.4856 0081593 186.8501 173.1565 14.13599366496123
FENGYUN 1C DEB          
1 33624U 99025DDH 23257.25023602  .00061012  00000+0  43804-2 0  9992
2 33624  98.0695 262.3935 0214978 279.6671  78.0321 14.87329924810128
FENGYUN 1C DEB          
1 33625U 99025DDJ 23257.99945000  .00006676  00000+0  12235-2 0  9998
2 33625  98.6404 335.3390 0281494 112.5511 250.5727 14.43572532494957
FENGYUN 1C DEB          
1 33628U 99025DDM 23257.79813038  .00051346  00000+0  25571-2 0  9995
2 33628  98.3601 104.1758 0083713 247.6971 111.5368 15.14319218837306
FENGYUN 1C DEB          
1 33630U 99025DDP 23256.12868866  .00001329  00000+0  64918-3 0  9998
2 33630  98.5515  20.1149 0139213 269.5804  88.9417 14.14721458527817
FENGYUN 1C DEB          
1 33632U 99025DDR 23257.63228410  .00029316  00000+0  48220-2 0  9995
2 33632  99.0430 323.8411 0035899  59.5450 300.9291 14.70078350811478
FENGYUN 1C DEB          
1 33633U 99025DDS 23255.66167557  .00003335  00000+0  18998-2 0  9993
2 33633  99.0845 327.3945 0093676 308.6595 207.8515 14.08275186790955
FENGYUN 1C DEB          
1 33636U 99025DDV 23247.87993147  .00001613  00000+0  67943-3 0  9994
2 33636  98.5326 274.7604 0072175  15.8362 111.3224 14.25677171582227
FENGYUN 1C DEB          
1 33637U 99025DDW 23254.91189135  .00003978  00000+0  15699-2 0  9998
2 33637  98.5769 302.3560 0095824  62.4069 298.6804 14.27111637530628
FENGYUN 1C DEB          
1 33638U 99025DDX 23255.70452227  .00001964  00000+0  19135-2 0  9994
2 33638  98.4365 236.4148 0274890 299.4438  57.9534 13.64987620803546
